{"type": "FeatureCollection", "features": [ {"type": "Feature", "properties": {"norad_id": 42741, "name": "EUTELSAT 172B", "group": "eutelsat", "lat": -0.0035542969733894886, "lon": -116.824395577965, "alt_km": 35786.87160257973, "timestamp": "2025-12-21T22:41:41.119249+00:00", "meta": {"OBJECT_NAME": "EUTELSAT 172B", "OBJECT_ID": "2017-029B", "EPOCH": "2025-12-21T03:54:38.769408", "MEAN_MOTION": 1.00271576, "ECCENTRICITY": 2.14e-05, "INCLINATION": 0.0339, "RA_OF_ASC_NODE": 123.0997, "ARG_OF_PERICENTER": 332.7082, "MEAN_ANOMALY": 224.8432, "EPHEMERIS_TYPE": 0, "CLASSIFICATION_TYPE": "U", "NORAD_CAT_ID": 42741, "ELEMENT_SET_NO": 999, "REV_AT_EPOCH": 3194, "BSTAR": 0, "MEAN_MOTION_DOT": 1.7e-07, "MEAN_MOTION_DDOT": 0}, "tle": {"line1": "1 42741U 17029B   25355.16294872  .00000017  00000+0  00000+0 0  9992", "line2": "2 42741   0.0339 123.0997 0000214 332.7082 224.8432  1.00271576 31949"}}, "geometry": {"type": "Point", "coordinates": [-116.824395577965, -0.0035542969733894886]}}, {"type": "Feature", "properties": {"norad_id": 44334, "name": "EUTELSAT 7C", "group": "eutelsat", "lat": -0.04637139188075954, "lon": 78.17167800903465, "alt_km": 35798.92531323365, "timestamp": "2025-12-21T22:41:41.119261+00:00", "meta": {"OBJECT_NAME": "EUTELSAT 7C", "OBJECT_ID": "2019-034B", "EPOCH": "2025-12-21T06:43:38.847936", "MEAN_MOTION": 1.00275605, "ECCENTRICITY": 0.00032954, "INCLINATION": 0.0735, "RA_OF_ASC_NODE": 179.9095, "ARG_OF_PERICENTER": 77.2937, "MEAN_ANOMALY": 300.8021, "EPHEMERIS_TYPE": 0, "CLASSIFICATION_TYPE": "U", "NORAD_CAT_ID": 44334, "ELEMENT_SET_NO": 999, "REV_AT_EPOCH": 505, "BSTAR": 0, "MEAN_MOTION_DOT": 7.2e-07, "MEAN_MOTION_DDOT": 0}, "tle": {"line1": "1 44334U 19034B   25355.28031074  .00000072  00000+0  00000+0 0  9997", "line2": "2 44334   0.0735 179.9095 0003295  77.2937 300.8021  1.00275605  5059"}}, "geometry": {"type": "Point", "coordinates": [78.17167800903465, -0.04637139188075954]}}, {"type": "Feature", "properties": {"norad_id": 44624, "name": "EUTELSAT 5 WEST B", "group": "eutelsat", "lat": 0.08887424570641128, "lon": 66.18889625889125, "alt_km": 35797.84690362793, "timestamp": "2025-12-21T22:41:41.119272+00:00", "meta": {"OBJECT_NAME": "EUTELSAT 5 WEST B", "OBJECT_ID": "2019-067A", "EPOCH": "2025-12-21T09:44:56.694336", "MEAN_MOTION": 1.00271339, "ECCENTRICITY": 0.00030095, "INCLINATION": 0.0661, "RA_OF_ASC_NODE": 336.7773, "ARG_OF_PERICENTER": 293.2552, "MEAN_ANOMALY": 321.4345, "EPHEMERIS_TYPE": 0, "CLASSIFICATION_TYPE": "U", "NORAD_CAT_ID": 44624, "ELEMENT_SET_NO": 999, "REV_AT_EPOCH": 2265, "BSTAR": 0, "MEAN_MOTION_DOT": -1.9e-07, "MEAN_MOTION_DDOT": 0}, "tle": {"line1": "1 44624U 19067A   25355.40621174 -.00000019  00000+0  00000+0 0  9997", "line2": "2 44624   0.0661 336.7773 0003009 293.2552 321.4345  1.00271339 22654"}}, "geometry": {"type": "Point", "coordinates": [66.18889625889125, 0.08887424570641128]}}, {"type": "Feature", "properties": {"norad_id": 45027, "name": "EUTELSAT KONNECT", "group": "eutelsat", "lat": 0.00572235618542308, "lon": 78.37942538709471, "alt_km": 35791.500845612376, "timestamp": "2025-12-21T22:41:41.119284+00:00", "meta": {"OBJECT_NAME": "EUTELSAT KONNECT", "OBJECT_ID": "2020-005B", "EPOCH": "2025-12-21T13:13:55.057152", "MEAN_MOTION": 1.00270761, "ECCENTRICITY": 0.00012931, "INCLINATION": 0.0694, "RA_OF_ASC_NODE": 94.8041, "ARG_OF_PERICENTER": 183.3013, "MEAN_ANOMALY": 17.9476, "EPHEMERIS_TYPE": 0, "CLASSIFICATION_TYPE": "U", "NORAD_CAT_ID": 45027, "ELEMENT_SET_NO": 999, "REV_AT_EPOCH": 2255, "BSTAR": 0, "MEAN_MOTION_DOT": 7.2e-07, "MEAN_MOTION_DDOT": 0}, "tle": {"line1": "1 45027U 20005B   25355.55133168  .00000072  00000+0  00000+0 0  9994", "line2": "2 45027   0.0694  94.8041 0001293 183.3013  17.9476  1.00270761 22551"}}, "geometry": {"type": "Point", "coordinates": [78.37942538709471, 0.00572235618542308]}}, {"type": "Feature", "properties": {"norad_id": 49056, "name": "EUTELSAT QUANTUM", "group": "eutelsat", "lat": 0.04312453103318595, "lon": 118.86712393441528, "alt_km": 35799.25510072254, "timestamp": "2025-12-21T22:41:41.119311+00:00", "meta": {"OBJECT_NAME": "EUTELSAT QUANTUM", "OBJECT_ID": "2021-069B", "EPOCH": "2025-12-21T09:59:47.771232", "MEAN_MOTION": 1.00272395, "ECCENTRICITY": 0.00033477, "INCLINATION": 0.0212, "RA_OF_ASC_NODE": 40.4204, "ARG_OF_PERICENTER": 239.54, "MEAN_ANOMALY": 7.9319, "EPHEMERIS_TYPE": 0, "CLASSIFICATION_TYPE": "U", "NORAD_CAT_ID": 49056, "ELEMENT_SET_NO": 999, "REV_AT_EPOCH": 1614, "BSTAR": 0, "MEAN_MOTION_DOT": 1.48e-06, "MEAN_MOTION_DDOT": 0}, "tle": {"line1": "1 49056U 21069B   25355.41652513  .00000148  00000+0  00000+0 0  9990", "line2": "2 49056   0.0212  40.4204 0003347 239.5400   7.9319  1.00272395 16145"}}, "geometry": {"type": "Point", "coordinates": [118.86712393441528, 0.04312453103318595]}}, {"type": "Feature", "properties": {"norad_id": 53765, "name": "EUTELSAT KONNECT VHTS", "group": "eutelsat", "lat": -0.0005676469500377361, "lon": 73.90013074228371, "alt_km": 35796.666167204734, "timestamp": "2025-12-21T22:41:41.119325+00:00", "meta": {"OBJECT_NAME": "EUTELSAT KONNECT VHTS", "OBJECT_ID": "2022-110A", "EPOCH": "2025-12-21T13:12:40.176000", "MEAN_MOTION": 1.00270894, "ECCENTRICITY": 0.0002618, "INCLINATION": 0.0618, "RA_OF_ASC_NODE": 99.3714, "ARG_OF_PERICENTER": 133.7511, "MEAN_ANOMALY": 58.1537, "EPHEMERIS_TYPE": 0, "CLASSIFICATION_TYPE": "U", "NORAD_CAT_ID": 53765, "ELEMENT_SET_NO": 999, "REV_AT_EPOCH": 504, "BSTAR": 0, "MEAN_MOTION_DOT": 4e-07, "MEAN_MOTION_DDOT": 0}, "tle": {"line1": "1 53765U 22110A   25355.55046500  .00000040  00000+0  00000+0 0  9999", "line2": "2 53765   0.0618  99.3714 0002618 133.7511  58.1537  1.00270894  5043"}}, "geometry": {"type": "Point", "coordinates": [73.90013074228371, -0.0005676469500377361]}}, {"type": "Feature", "properties": {"norad_id": 54048, "name": "EUTELSAT HOTBIRD 13F", "group": "eutelsat", "lat": 0.043973209071811424, "lon": 84.18729505552022, "alt_km": 35784.23160388796, "timestamp": "2025-12-21T22:41:41.119338+00:00", "meta": {"OBJECT_NAME": "EUTELSAT HOTBIRD 13F", "OBJECT_ID": "2022-134A", "EPOCH": "2025-12-21T06:42:50.848416", "MEAN_MOTION": 1.00269817, "ECCENTRICITY": 0.00023327, "INCLINATION": 0.052, "RA_OF_ASC_NODE": 291.9077, "ARG_OF_PERICENTER": 75.9758, "MEAN_ANOMALY": 195.9245, "EPHEMERIS_TYPE": 0, "CLASSIFICATION_TYPE": "U", "NORAD_CAT_ID": 54048, "ELEMENT_SET_NO": 999, "REV_AT_EPOCH": 1159, "BSTAR": 0, "MEAN_MOTION_DOT": 1.1e-06, "MEAN_MOTION_DDOT": 0}, "tle": {"line1": "1 54048U 22134A   25355.27975519  .00000110  00000+0  00000+0 0  9998", "line2": "2 54048   0.0520 291.9077 0002332  75.9758 195.9245  1.00269817 11591"}}, "geometry": {"type": "Point", "coordinates": [84.18729505552022, 0.043973209071811424]}}, {"type": "Feature", "properties": {"norad_id": 54225, "name": "EUTELSAT HOTBIRD 13G", "group": "eutelsat", "lat": 0.009572040124079985, "lon": 84.14087241114558, "alt_km": 35786.2275997091, "timestamp": "2025-12-21T22:41:41.119350+00:00", "meta": {"OBJECT_NAME": "EUTELSAT HOTBIRD 13G", "OBJECT_ID": "2022-146A", "EPOCH": "2025-12-21T08:07:28.528896", "MEAN_MOTION": 1.00270673, "ECCENTRICITY": 0.00019382, "INCLINATION": 0.053, "RA_OF_ASC_NODE": 228.376, "ARG_OF_PERICENTER": 305.0726, "MEAN_ANOMALY": 51.5735, "EPHEMERIS_TYPE": 0, "CLASSIFICATION_TYPE": "U", "NORAD_CAT_ID": 54225, "ELEMENT_SET_NO": 999, "REV_AT_EPOCH": 568, "BSTAR": 0, "MEAN_MOTION_DOT": 1.1e-06, "MEAN_MOTION_DDOT": 0}, "tle": {"line1": "1 54225U 22146A   25355.33852464  .00000110  00000+0  00000+0 0  9998", "line2": "2 54225   0.0530 228.3760 0001938 305.0726  51.5735  1.00270673  5681"}}, "geometry": {"type": "Point", "coordinates": [84.14087241114558, 0.009572040124079985]}}, {"type": "Feature", "properties": {"norad_id": 54259, "name": "EUTELSAT 10B", "group": "eutelsat", "lat": 0.010975887237283988, "lon": 81.15649045858531, "alt_km": 35784.34795080518, "timestamp": "2025-12-21T22:41:41.119362+00:00", "meta": {"OBJECT_NAME": "EUTELSAT 10B", "OBJECT_ID": "2022-157A", "EPOCH": "2025-12-21T08:06:36.111744", "MEAN_MOTION": 1.00265489, "ECCENTRICITY": 0.00012525, "INCLINATION": 0.0606, "RA_OF_ASC_NODE": 94.5139, "ARG_OF_PERICENTER": 36.2048, "MEAN_ANOMALY": 91.1001, "EPHEMERIS_TYPE": 0, "CLASSIFICATION_TYPE": "U", "NORAD_CAT_ID": 54259, "ELEMENT_SET_NO": 999, "REV_AT_EPOCH": 1124, "BSTAR": 0, "MEAN_MOTION_DOT": 9e-07, "MEAN_MOTION_DDOT": 0}, "tle": {"line1": "1 54259U 22157A   25355.33791796  .00000090  00000+0  00000+0 0  9994", "line2": "2 54259   0.0606  94.5139 0001252  36.2048  91.1001  1.00265489 11248"}}, "geometry": {"type": "Point", "coordinates": [81.15649045858531, 0.010975887237283988]}}, {"type": "Feature", "properties": {"norad_id": 59346, "name": "EUTELSAT 36D", "group": "eutelsat", "lat": 0.04861295422514623, "lon": 107.0279926875358, "alt_km": 35786.17584262397, "timestamp": "2025-12-21T22:41:41.119374+00:00", "meta": {"OBJECT_NAME": "EUTELSAT 36D", "OBJECT_ID": "2024-059A", "EPOCH": "2025-12-21T11:39:26.603712", "MEAN_MOTION": 1.00272156, "ECCENTRICITY": 4.384e-05, "INCLINATION": 0.0244, "RA_OF_ASC_NODE": 29.7996, "ARG_OF_PERICENTER": 338.8651, "MEAN_ANOMALY": 292.3516, "EPHEMERIS_TYPE": 0, "CLASSIFICATION_TYPE": "U", "NORAD_CAT_ID": 59346, "ELEMENT_SET_NO": 999, "REV_AT_EPOCH": 636, "BSTAR": 0, "MEAN_MOTION_DOT": 0, "MEAN_MOTION_DDOT": 0}, "tle": {"line1": "1 59346U 24059A   25355.48572458  .00000000  00000+0  00000+0 0  9998", "line2": "2 59346   0.0244  29.7996 0000438 338.8651 292.3516  1.00272156  6367"}}, "geometry": {"type": "Point", "coordinates": [107.0279926875358, 0.04861295422514623]}}]}